[{"OBJECT_NAME":"COSMOS 2550","OBJECT_ID":"2021-056A","EPOCH":"2026-03-08T11:22:34.326624","MEAN_MOTION":15.33829151,"ECCENTRICITY":0.00083692,"INCLINATION":67.1451,"RA_OF_ASC_NODE":44.6088,"ARG_OF_PERICENTER":269.6014,"MEAN_ANOMALY":90.4182,"EPHEMERIS_TYPE":0,"CLASSIFICATION_TYPE":"U","NORAD_CAT_ID":48865,"ELEMENT_SET_NO":999,"REV_AT_EPOCH":26327,"BSTAR":-1.3338e-8,"MEAN_MOTION_DOT":-1.92e-6,"MEAN_MOTION_DDOT":0},{"OBJECT_NAME":"STARLINK-31786","OBJECT_ID":"2024-091U","EPOCH":"2026-03-09T07:26:11.818464","MEAN_MOTION":15.30193136,"ECCENTRICITY":0.00012428,"INCLINATION":53.1616,"RA_OF_ASC_NODE":28.8329,"ARG_OF_PERICENTER":65.6033,"MEAN_ANOMALY":294.5097,"EPHEMERIS_TYPE":0,"CLASSIFICATION_TYPE":"U","NORAD_CAT_ID":59771,"ELEMENT_SET_NO":999,"REV_AT_EPOCH":10294,"BSTAR":-6.725755e-6,"MEAN_MOTION_DOT":-5.58e-6,"MEAN_MOTION_DDOT":0}]
